STARLINK-30165          
1 57457U 23107A   26068.15803055  .00001619  00000+0  70021-4 0  9990
2 57457  42.9999 339.2931 0001498 275.8397  84.2284 15.26736421145055
FLOCK 4G-11             
1 62629U 25009W   26068.45629261  .00012672  00000+0  47740-3 0  9990
2 62629  97.3964 150.6183 0001611 333.5407  26.5750 15.27220677 63680
